{
  "type": "FeatureCollection",
  "features": [
    {
      "type": "Feature",
      "properties": {
        "norad_id": 39773,
        "name": "EUTELSAT 3B",
        "group": "eutelsat",
        "lat": -0.07739406594249994,
        "lon": -62.31562474216301,
        "alt_km": 35778.156477120356,
        "timestamp": "2025-12-06T14:35:36.798771+00:00",
        "meta_object_name": "EUTELSAT 3B",
        "meta_object_id": "2014-030A",
        "meta_epoch": "2025-12-06T06:08:38.706720",
        "meta_mean_motion": 1.00271536,
        "meta_eccentricity": 0.00047379,
        "meta_inclination": 0.0647,
        "meta_ra_of_asc_node": 9.5277,
        "meta_arg_of_pericenter": 221.377,
        "meta_mean_anomaly": 299.6523,
        "meta_ephemeris_type": 0,
        "meta_classification_type": "U",
        "meta_norad_cat_id": 39773,
        "meta_element_set_no": 999,
        "meta_rev_at_epoch": 4213,
        "meta_bstar": 0,
        "meta_mean_motion_dot": 2.8e-07,
        "meta_mean_motion_ddot": 0,
        "tle_line1": "1 39773U 14030A   25340.25600355  .00000028  00000+0  00000+0 0  9995",
        "tle_line2": "2 39773   0.0647   9.5277 0004737 221.3770 299.6523  1.00271536 42132"
      },
      "geometry": {
        "type": "Point",
        "coordinates": [
          -62.31562474216301,
          -0.07739406594249994
        ]
      }
    },
    {
      "type": "Feature",
      "properties": {
        "norad_id": 40425,
        "name": "EUTELSAT 115 WEST B",
        "group": "eutelsat",
        "lat": 0.0045888677244286386,
        "lon": 179.670318318185,
        "alt_km": 35786.67937893098,
        "timestamp": "2025-12-06T14:35:36.798782+00:00",
        "meta_object_name": "EUTELSAT 115 WEST B",
        "meta_object_id": "2015-010B",
        "meta_epoch": "2025-12-05T21:42:40.706784",
        "meta_mean_motion": 1.00271075,
        "meta_eccentricity": 4.108e-05,
        "meta_inclination": 0.0148,
        "meta_ra_of_asc_node": 147.2879,
        "meta_arg_of_pericenter": 288.3386,
        "meta_mean_anomaly": 210.1252,
        "meta_ephemeris_type": 0,
        "meta_classification_type": "U",
        "meta_norad_cat_id": 40425,
        "meta_element_set_no": 999,
        "meta_rev_at_epoch": 3945,
        "meta_bstar": 0,
        "meta_mean_motion_dot": -1.6e-07,
        "meta_mean_motion_ddot": 0,
        "tle_line1": "1 40425U 15010B   25339.90463781 -.00000016  00000+0  00000+0 0  9998",
        "tle_line2": "2 40425   0.0148 147.2879 0000410 288.3386 210.1252  1.00271075 39458"
      },
      "geometry": {
        "type": "Point",
        "coordinates": [
          179.670318318185,
          0.0045888677244286386
        ]
      }
    },
    {
      "type": "Feature",
      "properties": {
        "norad_id": 40875,
        "name": "EUTELSAT 8 WEST B",
        "group": "eutelsat",
        "lat": -0.07923385346935136,
        "lon": -73.42733385169267,
        "alt_km": 35770.93530724314,
        "timestamp": "2025-12-06T14:35:36.798794+00:00",
        "meta_object_name": "EUTELSAT 8 WEST B",
        "meta_object_id": "2015-039B",
        "meta_epoch": "2025-12-06T06:46:44.152608",
        "meta_mean_motion": 1.00271561,
        "meta_eccentricity": 0.00041284,
        "meta_inclination": 0.0647,
        "meta_ra_of_asc_node": 353.5592,
        "meta_arg_of_pericenter": 263.443,
        "meta_mean_anomaly": 272.0186,
        "meta_ephemeris_type": 0,
        "meta_classification_type": "U",
        "meta_norad_cat_id": 40875,
        "meta_element_set_no": 999,
        "meta_rev_at_epoch": 3772,
        "meta_bstar": 0,
        "meta_mean_motion_dot": -5.8e-07,
        "meta_mean_motion_ddot": 0,
        "tle_line1": "1 40875U 15039B   25340.28245547 -.00000058  00000+0  00000+0 0  9995",
        "tle_line2": "2 40875   0.0647 353.5592 0004128 263.4430 272.0186  1.00271561 37720"
      },
      "geometry": {
        "type": "Point",
        "coordinates": [
          -73.42733385169267,
          -0.07923385346935136
        ]
      }
    },
    {
      "type": "Feature",
      "properties": {
        "norad_id": 41310,
        "name": "EUTELSAT 9B",
        "group": "eutelsat",
        "lat": -0.0649304397426753,
        "lon": -56.433242421808885,
        "alt_km": 35768.80863684609,
        "timestamp": "2025-12-06T14:35:36.798806+00:00",
        "meta_object_name": "EUTELSAT 9B",
        "meta_object_id": "2016-005A",
        "meta_epoch": "2025-12-06T06:51:36.187200",
        "meta_mean_motion": 1.00272299,
        "meta_eccentricity": 0.00050189,
        "meta_inclination": 0.0735,
        "meta_ra_of_asc_node": 75.7395,
        "meta_arg_of_pericenter": 191.5268,
        "meta_mean_anomaly": 279.9567,
        "meta_ephemeris_type": 0,
        "meta_classification_type": "U",
        "meta_norad_cat_id": 41310,
        "meta_element_set_no": 999,
        "meta_rev_at_epoch": 3618,
        "meta_bstar": 0,
        "meta_mean_motion_dot": 7e-07,
        "meta_mean_motion_ddot": 0,
        "tle_line1": "1 41310U 16005A   25340.28583550  .00000070  00000+0  00000+0 0  9996",
        "tle_line2": "2 41310   0.0735  75.7395 0005018 191.5268 279.9567  1.00272299 36183"
      },
      "geometry": {
        "type": "Point",
        "coordinates": [
          -56.433242421808885,
          -0.0649304397426753
        ]
      }
    },
    {
      "type": "Feature",
      "properties": {
        "norad_id": 41382,
        "name": "EUTELSAT 65 WEST A",
        "group": "eutelsat",
        "lat": -0.06380080868082051,
        "lon": -130.69236246015652,
        "alt_km": 35776.69105046314,
        "timestamp": "2025-12-06T14:35:36.798818+00:00",
        "meta_object_name": "EUTELSAT 65 WEST A",
        "meta_object_id": "2016-014A",
        "meta_epoch": "2025-12-06T06:30:23.218848",
        "meta_mean_motion": 1.00269686,
        "meta_eccentricity": 0.00028816,
        "meta_inclination": 0.049,
        "meta_ra_of_asc_node": 353.9577,
        "meta_arg_of_pericenter": 270.222,
        "meta_mean_anomaly": 203.5224,
        "meta_ephemeris_type": 0,
        "meta_classification_type": "U",
        "meta_norad_cat_id": 41382,
        "meta_element_set_no": 999,
        "meta_rev_at_epoch": 3560,
        "meta_bstar": 0,
        "meta_mean_motion_dot": -2.68e-06,
        "meta_mean_motion_ddot": 0,
        "tle_line1": "1 41382U 16014A   25340.27110207 -.00000268  00000+0  00000+0 0  9999",
        "tle_line2": "2 41382   0.0490 353.9577 0002881 270.2220 203.5224  1.00269686 35606"
      },
      "geometry": {
        "type": "Point",
        "coordinates": [
          -130.69236246015652,
          -0.06380080868082051
        ]
      }
    },
    {
      "type": "Feature",
      "properties": {
        "norad_id": 41589,
        "name": "EUTELSAT 117 WEST B",
        "group": "eutelsat",
        "lat": 0.00762710813468218,
        "lon": 177.52252192909998,
        "alt_km": 35786.27812677297,
        "timestamp": "2025-12-06T14:35:36.798829+00:00",
        "meta_object_name": "EUTELSAT 117 WEST B",
        "meta_object_id": "2016-038B",
        "meta_epoch": "2025-12-05T20:45:38.566944",
        "meta_mean_motion": 1.00266552,
        "meta_eccentricity": 3.952e-05,
        "meta_inclination": 0.0067,
        "meta_ra_of_asc_node": 150.7186,
        "meta_arg_of_pericenter": 345.3636,
        "meta_mean_anomaly": 133.2375,
        "meta_ephemeris_type": 0,
        "meta_classification_type": "U",
        "meta_norad_cat_id": 41589,
        "meta_element_set_no": 999,
        "meta_rev_at_epoch": 3472,
        "meta_bstar": 0,
        "meta_mean_motion_dot": -1e-08,
        "meta_mean_motion_ddot": 0,
        "tle_line1": "1 41589U 16038B   25339.86502971 -.00000001  00000+0  00000+0 0  9995",
        "tle_line2": "2 41589   0.0067 150.7186 0000395 345.3636 133.2375  1.00266552 34724"
      },
      "geometry": {
        "type": "Point",
        "coordinates": [
          177.52252192909998,
          0.00762710813468218
        ]
      }
    },
    {
      "type": "Feature",
      "properties": {
        "norad_id": 42741,
        "name": "EUTELSAT 172B",
        "group": "eutelsat",
        "lat": 0.0032738387831376323,
        "lon": 106.53972374325092,
        "alt_km": 35786.6603516522,
        "timestamp": "2025-12-06T14:35:36.798841+00:00",
        "meta_object_name": "EUTELSAT 172B",
        "meta_object_id": "2017-029B",
        "meta_epoch": "2025-12-05T21:21:42.715872",
        "meta_mean_motion": 1.00271098,
        "meta_eccentricity": 1.563e-05,
        "meta_inclination": 0.0102,
        "meta_ra_of_asc_node": 82.7669,
        "meta_arg_of_pericenter": 152.681,
        "meta_mean_anomaly": 331.9231,
        "meta_ephemeris_type": 0,
        "meta_classification_type": "U",
        "meta_norad_cat_id": 42741,
        "meta_element_set_no": 999,
        "meta_rev_at_epoch": 3179,
        "meta_bstar": 0,
        "meta_mean_motion_dot": 4e-08,
        "meta_mean_motion_ddot": 0,
        "tle_line1": "1 42741U 17029B   25339.89007773  .00000004  00000+0  00000+0 0  9992",
        "tle_line2": "2 42741   0.0102  82.7669 0000156 152.6810 331.9231  1.00271098 31796"
      },
      "geometry": {
        "type": "Point",
        "coordinates": [
          106.53972374325092,
          0.0032738387831376323
        ]
      }
    }
  ]
}